[{"OBJECT_NAME":"STARLINK-3660","OBJECT_ID":"2022-025X","EPOCH":"2026-03-09T05:17:47.321376","MEAN_MOTION":15.08834026,"ECCENTRICITY":0.0001665,"INCLINATION":53.2185,"RA_OF_ASC_NODE":21.2343,"ARG_OF_PERICENTER":92.0812,"MEAN_ANOMALY":268.0371,"EPHEMERIS_TYPE":0,"CLASSIFICATION_TYPE":"U","NORAD_CAT_ID":51977,"ELEMENT_SET_NO":999,"REV_AT_EPOCH":22126,"BSTAR":4.1805961e-5,"MEAN_MOTION_DOT":3.77e-6,"MEAN_MOTION_DDOT":0},{"OBJECT_NAME":"OBJECT G","OBJECT_ID":"2024-205G","EPOCH":"2026-03-09T23:05:54.449664","MEAN_MOTION":15.09392775,"ECCENTRICITY":0.00211709,"INCLINATION":97.4199,"RA_OF_ASC_NODE":141.9686,"ARG_OF_PERICENTER":130.0324,"MEAN_ANOMALY":230.2768,"EPHEMERIS_TYPE":0,"CLASSIFICATION_TYPE":"U","NORAD_CAT_ID":61900,"ELEMENT_SET_NO":999,"REV_AT_EPOCH":7318,"BSTAR":0.00059967322,"MEAN_MOTION_DOT":9.576e-5,"MEAN_MOTION_DDOT":0}]
